METHANESAT              
1 59101U 24043D   25142.08530589  .00002467  00000+0  22944-3 0  9993
2 59101  97.8003 268.2876 0009805 229.3928 130.6440 14.95238432 66158
